{"type":"FeatureCollection","features":[{"type":"Feature","geometry":{"type":"Point","coordinates":[121.639698,24.1154609]},"properties":{"serialnumber":"","name":"煙波大飯店花蓮太魯閣沁海館","address":"花蓮縣新城鄉順安村6鄰草林10之6號","phone":"(03)8228835#1174","latitude":"24.1154609","longitude":"121.639698","note":"金級環保旅宿","county":"花蓮縣","town":"新城鄉","village":"-"}},{"type":"Feature","geometry":{"type":"Point","coordinates":[121.6220671,23.9868493]},"properties":{"serialnumber":"","name":"煙波大飯店花蓮館","address":"花蓮縣花蓮市民立里1鄰中美路142號","phone":"(03)8228835#1174","latitude":"23.9868493","longitude":"121.6220671","note":"金級環保旅宿","county":"花蓮縣","town":"花蓮市","village":"-"}},{"type":"Feature","geometry":{"type":"Point","coordinates":[121.5673934,25.038696]},"properties":{"serialnumber":"","name":"台北艾麗酒店","address":"臺北市信義區松高路18號","phone":"(02)66318031","latitude":"25.038696","longitude":"121.5673934","note":"金級環保旅宿","county":"臺北市","town":"信義區","village":"-"}},{"type":"Feature","geometry":{"type":"Point","coordinates":[120.6965099,24.3236467]},"properties":{"serialnumber":"","name":"福容大飯店 麗寶樂園","address":"臺中市后里區福容路88號","phone":"(04)25571366#8343","latitude":"24.3236467","longitude":"120.6965099","note":"金級環保旅宿","county":"臺中市","town":"后里區","village":"-"}},{"type":"Feature","geometry":{"type":"Point","coordinates":[120.294552,22.6297069]},"properties":{"serialnumber":"","name":"福容徠旅高雄","address":"高雄市前金區永恆街3號6-14樓","phone":"(07)2156688#6309","latitude":"22.6297069","longitude":"120.294552","note":"金級環保旅宿","county":"高雄市","town":"前金區","village":"-"}},{"type":"Feature","geometry":{"type":"Point","coordinates":[121.4627243,25.0117403]},"properties":{"serialnumber":"","name":"板橋凱撒大飯店","address":"新北市板橋區縣民大道二段8號","phone":"(02)29583000#7701","latitude":"25.0117403","longitude":"121.4627243","note":"金級環保旅宿","county":"新北市","town":"板橋區","village":"-"}},{"type":"Feature","geometry":{"type":"Point","coordinates":[121.77281,24.8296121]},"properties":{"serialnumber":"","name":"礁溪寒沐酒店","address":"宜蘭縣礁溪鄉健康路1號1至14樓","phone":"(03)9058007","latitude":"24.8296121","longitude":"121.77281","note":"金級環保旅宿","county":"宜蘭縣","town":"礁溪鄉","village":"-"}},{"type":"Feature","geometry":{"type":"Point","coordinates":[121.4151708,25.1824319]},"properties":{"serialnumber":"","name":"福容大飯店 淡水漁人碼頭","address":"新北市淡水區觀海路83號","phone":"(02)2805 9958#8178","latitude":"25.1824319","longitude":"121.4151708","note":"金級環保旅宿","county":"新北市","town":"淡水區","village":"-"}},{"type":"Feature","geometry":{"type":"Point","coordinates":[121.1840362,24.8393257]},"properties":{"serialnumber":"","name":"渴望會館","address":"桃園市龍潭區渴望路428號3-5樓","phone":"(03)4072999#7110","latitude":"24.8393257","longitude":"121.1840362","note":"金級環保旅宿","county":"桃園市","town":"龍潭區","village":"-"}},{"type":"Feature","geometry":{"type":"Point","coordinates":[120.674415,23.4460065]},"properties":{"serialnumber":"","name":"阿里山英迪格酒店","address":"嘉義縣番路鄉公田村2鄰龍頭20號2樓之1等10筆","phone":"(05)2586800#121","latitude":"23.4460065","longitude":"120.674415","note":"金級環保旅宿","county":"嘉義縣","town":"番路鄉","village":"-"}},{"type":"Feature","geometry":{"type":"Point","coordinates":[121.5333295,25.0488724]},"properties":{"serialnumber":"","name":"長榮桂冠酒店(台北)","address":"臺北市中山區松江路63號","phone":"(02)25019988#2701","latitude":"25.0488724","longitude":"121.5333295","note":"金級環保旅宿","county":"臺北市","town":"中山區","village":"-"}},{"type":"Feature","geometry":{"type":"Point","coordinates":[120.3022835,22.6649803]},"properties":{"serialnumber":"","name":"巨蛋旅店","address":"高雄市鼓山區文忠路1號","phone":"(07)5868388#0","latitude":"22.6649803","longitude":"120.3022835","note":"金級環保旅宿","county":"高雄市","town":"鼓山區","village":"-"}},{"type":"Feature","geometry":{"type":"Point","coordinates":[121.5202958,25.0521949]},"properties":{"serialnumber":"","name":"台北君品大酒店","address":"臺北市大同區承德路1段3號1樓、5樓~16樓及地下1樓、地下3樓","phone":"(02)21819999#3142","latitude":"25.0521949","longitude":"121.5202958","note":"金級環保旅宿","county":"臺北市","town":"大同區","village":"-"}},{"type":"Feature","geometry":{"type":"Point","coordinates":[121.5233276,25.0441592]},"properties":{"serialnumber":"","name":"台北時代寓所","address":"臺北市中正區林森南路7號1至14樓，7-1號1樓","phone":"(02)77521801","latitude":"25.0441592","longitude":"121.5233276","note":"金級環保旅宿","county":"臺北市","town":"中正區","village":"-"}},{"type":"Feature","geometry":{"type":"Point","coordinates":[121.1396095,22.7647378]},"properties":{"serialnumber":"","name":"娜路彎銀河酒店","address":"臺東縣台東市豐興路66號","phone":"(089)225000#8263","latitude":"22.7647378","longitude":"121.1396095","note":"金級環保旅宿","county":"臺東縣","town":"臺東市","village":"-"}},{"type":"Feature","geometry":{"type":"Point","coordinates":[121.7567675,24.8267891]},"properties":{"serialnumber":"","name":"礁溪老爺酒店","address":"宜蘭縣礁溪鄉大忠村五峰路69號、69-1號","phone":"(03)9885211#8006","latitude":"24.8267891","longitude":"121.7567675","note":"金級環保旅宿","county":"宜蘭縣","town":"礁溪鄉","village":"-"}},{"type":"Feature","geometry":{"type":"Point","coordinates":[120.287711,22.621363]},"properties":{"serialnumber":"","name":"福容大飯店 高雄","address":"高雄市鹽埕區五福四路45號","phone":"(07)5317777#7782","latitude":"22.621363","longitude":"120.287711","note":"金級環保旅宿","county":"高雄市","town":"鹽埕區","village":"-"}},{"type":"Feature","geometry":{"type":"Point","coordinates":[121.5326451,25.0516406]},"properties":{"serialnumber":"","name":"寒居酒店","address":"臺北市中山區松江路116號1樓至9樓","phone":"(02)66008000#8886","latitude":"25.0516406","longitude":"121.5326451","note":"金級環保旅宿","county":"臺北市","town":"中山區","village":"-"}},{"type":"Feature","geometry":{"type":"Point","coordinates":[119.57584404,23.56821628]},"properties":{"serialnumber":"","name":"澎湖福朋喜來登酒店","address":"澎湖縣馬公市新店路197號","phone":"(06)9279955#3701","latitude":"23.56821628","longitude":"119.57584404","note":"金級環保旅宿","county":"澎湖縣","town":"馬公市","village":"-"}},{"type":"Feature","geometry":{"type":"Point","coordinates":[121.51508107,25.13777946]},"properties":{"serialnumber":"","name":"北投麗禧溫泉酒店","address":"臺北市北投區幽雅路30號","phone":"(02)28967799#738","latitude":"25.13777946","longitude":"121.51508107","note":"金級環保旅宿","county":"臺北市","town":"北投區","village":"-"}},{"type":"Feature","geometry":{"type":"Point","coordinates":[120.44864678,23.4833963]},"properties":{"serialnumber":"","name":"兆品酒店","address":"嘉義市文化路257號B2-9F","phone":"(05)2292883#3130","latitude":"23.4833963","longitude":"120.44864678","note":"金級環保旅宿","county":"嘉義市","town":"東區","village":"-"}},{"type":"Feature","geometry":{"type":"Point","coordinates":[121.46276335,25.01126104]},"properties":{"serialnumber":"","name":"趣淘漫旅-台北","address":"新北市板橋區中山路1段139號(1至2層)、139號4樓至20樓","phone":"(02)29583000#7701","latitude":"25.01126104","longitude":"121.46276335","note":"金級環保旅宿","county":"新北市","town":"板橋區","village":"-"}},{"type":"Feature","geometry":{"type":"Point","coordinates":[121.4624318,25.01141762]},"properties":{"serialnumber":"","name":"台北新板希爾頓酒店","address":"新北市板橋區民權路88號、88號（2至31樓）90號","phone":"(02)29583000#7702","latitude":"25.01141762","longitude":"121.4624318","note":"金級環保旅宿","county":"新北市","town":"板橋區","village":"-"}},{"type":"Feature","geometry":{"type":"Point","coordinates":[121.631994,25.05545154]},"properties":{"serialnumber":"","name":"富信大飯店","address":"新北市汐止區大同路一段152號","phone":"(02)26416422#5112","latitude":"25.05545154","longitude":"121.631994","note":"金級環保旅宿","county":"新北市","town":"汐止區","village":"-"}},{"type":"Feature","geometry":{"type":"Point","coordinates":[121.503824,25.13765674]},"properties":{"serialnumber":"","name":"北投老爺酒店","address":"臺北市北投區中和街2號","phone":"(02)28966966#8878","latitude":"25.13765674","longitude":"121.503824","note":"金級環保旅館","county":"臺北市","town":"北投區","village":"-"}},{"type":"Feature","geometry":{"type":"Point","coordinates":[121.60032904,25.00421502]},"properties":{"serialnumber":"","name":"福容大飯店 台北二館","address":"新北市深坑區北深路三段236號","phone":"(02)26620088#186","latitude":"25.00421502","longitude":"121.60032904","note":"金級環保旅宿","county":"新北市","town":"深坑區","village":"-"}},{"type":"Feature","geometry":{"type":"Point","coordinates":[121.5351067,24.4973747]},"properties":{"serialnumber":"","name":"太平⼭莊","address":"宜蘭縣大同鄉太平村太平巷58之1號","phone":"(03)9545114#607","latitude":"24.4973747","longitude":"121.5351067","note":"金級環保旅宿","county":"宜蘭縣","town":"大同鄉","village":"-"}},{"type":"Feature","geometry":{"type":"Point","coordinates":[121.8240474,24.68570894]},"properties":{"serialnumber":"","name":"煙波花時間 宜蘭傳藝","address":"宜蘭縣五結鄉五濱路二段201號","phone":"(03)9256899#1171","latitude":"24.68570894","longitude":"121.8240474","note":"金級環保旅宿","county":"宜蘭縣","town":"五結鄉","village":"-"}},{"type":"Feature","geometry":{"type":"Point","coordinates":[120.80835563,21.9563267]},"properties":{"serialnumber":"","name":"華泰瑞苑","address":"屏東縣恆春鎮公園路101號","phone":"(08)8863666","latitude":"21.9563267","longitude":"120.80835563","note":"金級環保旅宿","county":"屏東縣","town":"恆春鎮","village":"-"}},{"type":"Feature","geometry":{"type":"Point","coordinates":[120.65706914,24.15929492]},"properties":{"serialnumber":"","name":"長榮桂冠酒店(台中)","address":"臺中市西屯區臺灣大道二段666號","phone":"(04)23242236#2700","latitude":"24.15929492","longitude":"120.65706914","note":"金級環保旅宿","county":"臺中市","town":"西屯區","village":"-"}},{"type":"Feature","geometry":{"type":"Point","coordinates":[120.8034992,23.51097356]},"properties":{"serialnumber":"","name":"阿里山賓館（現代館）","address":"嘉義縣阿里山鄉香林村西阿里山16-1號","phone":"(05)2679996#5117","latitude":"23.51097356","longitude":"120.8034992","note":"金級環保旅宿","county":"嘉義縣","town":"阿里山鄉","village":"-"}},{"type":"Feature","geometry":{"type":"Point","coordinates":[120.3054539,22.61060049]},"properties":{"serialnumber":"","name":"然一酒店","address":"高雄市前鎮區中山二路199號","phone":"(07)9730186#1666","latitude":"22.61060049","longitude":"120.3054539","note":"金級環保旅宿","county":"高雄市","town":"前鎮區","village":"-"}},{"type":"Feature","geometry":{"type":"Point","coordinates":[121.49989244,25.03335634]},"properties":{"serialnumber":"","name":"凱達大飯店","address":"臺北市萬華區艋舺大道167號1-26樓","phone":"(02)23836789#6321","latitude":"25.03335634","longitude":"121.49989244","note":"金級環保旅館","county":"臺北市","town":"萬華區","village":"-"}},{"type":"Feature","geometry":{"type":"Point","coordinates":[121.4297257,25.17659347]},"properties":{"serialnumber":"","name":"將捷金鬱金香酒店","address":"新北市淡水區中正路1段2之1號(A區地上3至6層、B區地上1至5層、C區地下3層至地上3層)","phone":"(02)26218555#2913","latitude":"25.17659347","longitude":"121.4297257","note":"金級環保旅宿","county":"新北市","town":"淡水區","village":"-"}},{"type":"Feature","geometry":{"type":"Point","coordinates":[120.2949617,23.46862118]},"properties":{"serialnumber":"","name":"長榮文苑酒店(嘉義)","address":"嘉義縣太保市東勢里故宮大道777號","phone":"(05)3669988#2700","latitude":"23.46862118","longitude":"120.2949617","note":"金級環保旅宿","county":"嘉義縣","town":"太保市","village":"-"}},{"type":"Feature","geometry":{"type":"Point","coordinates":[120.44985134,23.50465996]},"properties":{"serialnumber":"","name":"新悦花園酒店","address":"嘉義市東區後湖里6鄰保順路69號","phone":"(05)2777266#5801","latitude":"23.50465996","longitude":"120.44985134","note":"金級環保旅宿","county":"嘉義市","town":"東區","village":"-"}},{"type":"Feature","geometry":{"type":"Point","coordinates":[120.28564857,22.62480321]},"properties":{"serialnumber":"","name":"翰品酒店 高雄","address":"高雄市鹽埕區大仁路43號","phone":"(07)5614688#3110","latitude":"22.62480321","longitude":"120.28564857","note":"金級環保旅宿","county":"高雄市","town":"鹽埕區","village":"-"}},{"type":"Feature","geometry":{"type":"Point","coordinates":[121.9439558,25.01838298]},"properties":{"serialnumber":"","name":"福容大飯店　福隆","address":"新北市貢寮區福隆里福隆街41號","phone":"(02)24992381","latitude":"25.01838298","longitude":"121.9439558","note":"金級環保旅宿","county":"新北市","town":"貢寮區","village":"-"}},{"type":"Feature","geometry":{"type":"Point","coordinates":[118.41936927,24.439254]},"properties":{"serialnumber":"","name":"金湖飯店","address":"金門縣金湖鎮太湖路二段218號","phone":"(082)379666#160","latitude":"24.439254","longitude":"118.41936927","note":"金級環保旅宿","county":"金門縣","town":"金湖鎮","village":"-"}},{"type":"Feature","geometry":{"type":"Point","coordinates":[121.5069911,25.13500876]},"properties":{"serialnumber":"","name":"大地酒店","address":"臺北市北投區奇岩路1號","phone":"(02)28931221#1003","latitude":"25.13500876","longitude":"121.5069911","note":"金級環保旅館","county":"臺北市","town":"北投區","village":"-"}},{"type":"Feature","geometry":{"type":"Point","coordinates":[121.63968727,24.11544129]},"properties":{"serialnumber":"","name":"煙波花時間 花蓮","address":"花蓮縣新城鄉順安村草林10-5號2~6樓","phone":"(03)8612000#1470","latitude":"24.11544129","longitude":"121.63968727","note":"金級環保旅宿","county":"花蓮縣","town":"新城鄉","village":"-"}},{"type":"Feature","geometry":{"type":"Point","coordinates":[121.63938686,24.11514752]},"properties":{"serialnumber":"","name":"煙波大飯店花蓮太魯閣山闊館","address":"花蓮縣新城鄉順安村草林10-7號","phone":"(03)8612000#1470","latitude":"24.11514752","longitude":"121.63938686","note":"金級環保旅宿","county":"花蓮縣","town":"新城鄉","village":"-"}},{"type":"Feature","geometry":{"type":"Point","coordinates":[121.469401,25.017678]},"properties":{"serialnumber":"","name":"傑仕堡有氧酒店","address":"新北市板橋區縣民大道2段275號、275號2至17樓、277號2樓","phone":"(02)77273000#54083","latitude":"25.017678","longitude":"121.469401","note":"金級環保旅宿","county":"新北市","town":"板橋區","village":"-"}},{"type":"Feature","geometry":{"type":"Point","coordinates":[120.303525,22.61126767]},"properties":{"serialnumber":"","name":"高雄洲際酒店","address":"高雄市前鎮區新光路33號 1樓、3~16樓","phone":"(07)2132006","latitude":"22.61126767","longitude":"120.303525","note":"金級環保旅宿","county":"高雄市","town":"前鎮區","village":"-"}},{"type":"Feature","geometry":{"type":"Point","coordinates":[119.57222222,23.56685611]},"properties":{"serialnumber":"","name":"澎澄飯店","address":"澎湖縣馬公市同和路168號","phone":"069235678","latitude":"23.56685611","longitude":"119.57222222","note":"金級環保旅宿","county":"澎湖縣","town":"馬公市","village":"-"}},{"type":"Feature","geometry":{"type":"Point","coordinates":[121.52995,25.062829]},"properties":{"serialnumber":"","name":"亞都麗緻大飯店","address":"臺北市中山區民權東路2段41號","phone":"0277352360","latitude":"25.062829","longitude":"121.52995","note":"金級環保旅宿","county":"臺北市","town":"中山區","village":"-"}},{"type":"Feature","geometry":{"type":"Point","coordinates":[120.302325,22.609281]},"properties":{"serialnumber":"","name":"承億酒店股份有限公司","address":"高雄市前鎮區林森四路189號","phone":"073333999","latitude":"22.609281","longitude":"120.302325","note":"金級環保旅館","county":"高雄市","town":"前鎮區","village":"-"}}]}