{"type":"FeatureCollection","features":[{"type":"Feature","geometry":{"type":"Point","coordinates":[121.6062917,25.0520254]},"properties":{"serialnumber":"","name":"台北六福萬怡酒店","address":"臺北市南港區忠孝東路七段359號7至30樓","phone":"(02)66156565#5000","latitude":"25.0520254","longitude":"121.6062917","note":"銀級環保旅宿","county":"臺北市","town":"南港區","village":"-"}},{"type":"Feature","geometry":{"type":"Point","coordinates":[120.3818591,22.352119]},"properties":{"serialnumber":"","name":"正好友生態環保旅店","address":"屏東縣琉球鄉中山路153號","phone":"(0886)12270","latitude":"22.352119","longitude":"120.3818591","note":"銀級環保旅宿","county":"臺中市","town":"后里區","village":"-"}},{"type":"Feature","geometry":{"type":"Point","coordinates":[121.5362346,25.0133643]},"properties":{"serialnumber":"","name":"捷絲旅臺大尊賢館","address":"臺北市大安區羅斯福路四段83號1-10樓","phone":"(02)77355088","latitude":"25.0133643","longitude":"121.5362346","note":"銀級環保旅宿","county":"臺北市","town":"大安區","village":"-"}},{"type":"Feature","geometry":{"type":"Point","coordinates":[121.5953242,25.2020308]},"properties":{"serialnumber":"","name":"陽明山天籟渡假酒店","address":"新北市金山區名流路1之6號、1之7號、1之9號、1之9號5樓及1之9號5樓之1至之8","phone":"(02)24080400#1700","latitude":"25.2020308","longitude":"121.5953242","note":"銀級環保旅宿","county":"新北市","town":"金山區","village":"-"}},{"type":"Feature","geometry":{"type":"Point","coordinates":[120.5425578,23.7107618]},"properties":{"serialnumber":"","name":"緻麗伯爵酒店","address":"雲林縣斗六市中山路6號","phone":"(05)5341666#3","latitude":"23.7107618","longitude":"120.5425578","note":"銀級環保旅宿","county":"雲林縣","town":"斗六市","village":"-"}},{"type":"Feature","geometry":{"type":"Point","coordinates":[121.3098085,24.3478689]},"properties":{"serialnumber":"","name":"武陵富野渡假村","address":"臺中市和平區武陵路3-16號","phone":"(04)25901399#8912","latitude":"24.3478689","longitude":"121.3098085","note":"銀級環保旅宿","county":"臺中市","town":"和平區","village":"-"}},{"type":"Feature","geometry":{"type":"Point","coordinates":[120.5880961,24.1366494]},"properties":{"serialnumber":"","name":"清新溫泉飯店","address":"臺中市烏日區溫泉路2號","phone":"(04)23831088#7602","latitude":"24.1366494","longitude":"120.5880961","note":"銀級環保旅宿","county":"臺中市","town":"烏日區","village":"-"}},{"type":"Feature","geometry":{"type":"Point","coordinates":[121.115399,24.50675]},"properties":{"serialnumber":"","name":"觀霧山莊","address":"苗栗縣泰安鄉梅園村觀霧8號","phone":"(03)3343818","latitude":"24.50675","longitude":"121.115399","note":"銀級環保旅宿","county":"苗栗縣","town":"泰安鄉","village":"-"}},{"type":"Feature","geometry":{"type":"Point","coordinates":[120.1843529,22.9887322]},"properties":{"serialnumber":"","name":"臺邦商旅","address":"臺南市安平區永華二街199號","phone":"(06)2931800#8603","latitude":"22.9887322","longitude":"120.1843529","note":"銀級環保旅宿","county":"臺南市","town":"安平區","village":"-"}},{"type":"Feature","geometry":{"type":"Point","coordinates":[120.533737,24.260259]},"properties":{"serialnumber":"","name":"台中港酒店","address":"臺中市梧棲區大智路二段388號","phone":"(04)37055888#6128","latitude":"24.260259","longitude":"120.533737","note":"銀級環保旅宿","county":"臺中市","town":"梧棲區","village":"-"}},{"type":"Feature","geometry":{"type":"Point","coordinates":[121.2053963,24.9721514]},"properties":{"serialnumber":"","name":"和逸飯店桃園青埔館","address":"桃園市中壢區春德路101號","phone":"(03)2737692#2102","latitude":"24.9721514","longitude":"121.2053963","note":"銀級環保旅宿","county":"桃園市","town":"中壢區","village":"-"}},{"type":"Feature","geometry":{"type":"Point","coordinates":[121.6037666,23.9746911]},"properties":{"serialnumber":"","name":"捷絲旅花蓮中正館","address":"花蓮縣花蓮市主睦里14鄰中正路396號","phone":"(03)8900069#8104","latitude":"23.9746911","longitude":"121.6037666","note":"銀級環保旅宿","county":"花蓮縣","town":"花蓮市","village":"-"}},{"type":"Feature","geometry":{"type":"Point","coordinates":[121.6531893,24.6782232]},"properties":{"serialnumber":"","name":"星8藝宿","address":"宜蘭縣三星鄉中山路三段192巷8號","phone":"(0932)495200","latitude":"24.6782232","longitude":"121.6531893","note":"銀級環保旅宿","county":"宜蘭縣","town":"三星鄉","village":"-"}},{"type":"Feature","geometry":{"type":"Point","coordinates":[120.9320482,23.8467431]},"properties":{"serialnumber":"","name":"日月潭力麗溫德姆溫泉酒店","address":"南投縣魚池鄉日月村中正路312號","phone":"(049)2850085#8802","latitude":"23.8467431","longitude":"120.9320482","note":"銀級環保旅宿","county":"南投縣","town":"魚池鄉","village":"-"}},{"type":"Feature","geometry":{"type":"Point","coordinates":[120.1602383,22.9902666]},"properties":{"serialnumber":"","name":"台南安平雅樂軒酒店","address":"臺南市安平區光州路108號2-12樓、光州路108之1號","phone":"(06)3905000#8600","latitude":"22.9902666","longitude":"120.1602383","note":"銀級環保旅宿","county":"臺南市","town":"安平區","village":"-"}},{"type":"Feature","geometry":{"type":"Point","coordinates":[121.5985799,25.0041768]},"properties":{"serialnumber":"","name":"海灣假日酒店","address":"新北市深坑區北深路3段265號","phone":"(02)77035880","latitude":"25.0041768","longitude":"121.5985799","note":"銀級環保旅宿","county":"新北市","town":"深坑區","village":"-"}},{"type":"Feature","geometry":{"type":"Point","coordinates":[121.0293089,24.8187718]},"properties":{"serialnumber":"","name":"新竹喜來登大飯店","address":"新竹縣竹北市光明六路東一段265號","phone":"(03)6206126","latitude":"24.8187718","longitude":"121.0293089","note":"銀級環保旅宿","county":"新竹縣","town":"竹北市","village":"-"}},{"type":"Feature","geometry":{"type":"Point","coordinates":[121.4296176,25.1593548]},"properties":{"serialnumber":"","name":"八里福朋喜來登酒店","address":"新北市八里區觀海大道8號","phone":"(02)26192777#2602","latitude":"25.1593548","longitude":"121.4296176","note":"銀級環保旅宿","county":"新北市","town":"八里區","village":"-"}},{"type":"Feature","geometry":{"type":"Point","coordinates":[120.364643,22.618631]},"properties":{"serialnumber":"","name":"SOHO工房眷村生活體驗館","address":"高雄市鳳山區黃埔新村東三巷101號","phone":"(0906)506106","latitude":"22.618631","longitude":"120.364643","note":"銀級環保旅宿","county":"高雄市","town":"鳳山區","village":"-"}},{"type":"Feature","geometry":{"type":"Point","coordinates":[121.5592994,25.0804289]},"properties":{"serialnumber":"","name":"台北萬豪酒店","address":"臺北市中山區樂群二路199號","phone":"(02)21757999#1701","latitude":"25.0804289","longitude":"121.5592994","note":"銀級環保旅宿","county":"臺北市","town":"中山區","village":"-"}},{"type":"Feature","geometry":{"type":"Point","coordinates":[120.797435,23.6722507]},"properties":{"serialnumber":"","name":"溪頭福華渡假飯店-溪頭漢光樓","address":"南投縣鹿谷鄉森林巷11、12號","phone":"(049)2612588#3005","latitude":"23.6722507","longitude":"120.797435","note":"銀級環保旅宿","county":"南投縣","town":"鹿谷鄉","village":"-"}},{"type":"Feature","geometry":{"type":"Point","coordinates":[121.6147949,25.0598044]},"properties":{"serialnumber":"","name":"南港老爺行旅","address":"臺北市南港區經貿二路196號、196號10樓至20樓","phone":"(02)77500588","latitude":"25.0598044","longitude":"121.6147949","note":"銀級環保旅宿","county":"臺北市","town":"南港區","village":"-"}},{"type":"Feature","geometry":{"type":"Point","coordinates":[121.530377,25.0531131]},"properties":{"serialnumber":"","name":"美侖商旅","address":"臺北市中山區吉林路49號1至8樓","phone":"(02)25313535#878","latitude":"25.0531131","longitude":"121.530377","note":"銀級環保旅宿","county":"臺北市","town":"中山區","village":"-"}},{"type":"Feature","geometry":{"type":"Point","coordinates":[121.5244775,25.063034]},"properties":{"serialnumber":"","name":"台北中山雅樂軒酒店","address":"臺北市中山區雙城街1號","phone":"(02)77439900","latitude":"25.063034","longitude":"121.5244775","note":"銀級環保旅宿","county":"臺北市","town":"中山區","village":"-"}},{"type":"Feature","geometry":{"type":"Point","coordinates":[120.6833566,24.1367042]},"properties":{"serialnumber":"","name":"台中李方艾美酒店","address":"臺中市中區建國路111號","phone":"(04)22240888#81002","latitude":"24.1367042","longitude":"120.6833566","note":"銀級環保旅宿","county":"臺中市","town":"中區","village":"-"}},{"type":"Feature","geometry":{"type":"Point","coordinates":[121.5433012,25.0374704]},"properties":{"serialnumber":"","name":"福華大飯店","address":"臺北市大安區仁愛路三段160號","phone":"(02)27002323#2411","latitude":"25.0374704","longitude":"121.5433012","note":"銀級環保旅宿","county":"臺北市","town":"大安區","village":"-"}},{"type":"Feature","geometry":{"type":"Point","coordinates":[121.5055703,25.0451667]},"properties":{"serialnumber":"","name":"台北西門町意舍酒店","address":"臺北市萬華區武昌街2段77號5樓至10樓","phone":"(02)23755111#2100","latitude":"25.0451667","longitude":"121.5055703","note":"銀級環保旅宿","county":"臺北市","town":"萬華區","village":"-"}},{"type":"Feature","geometry":{"type":"Point","coordinates":[120.1584495,23.0031633]},"properties":{"serialnumber":"","name":"綉溪安平","address":"臺南市安平區王城里12鄰古堡街136號、138號、138之1號","phone":"(06)3910988#3111","latitude":"23.0031633","longitude":"120.1584495","note":"銀級環保旅宿","county":"臺南市","town":"安平區","village":"-"}},{"type":"Feature","geometry":{"type":"Point","coordinates":[121.487597,25.0773891]},"properties":{"serialnumber":"","name":"捷絲旅台北三重館","address":"新北市三重區三和路四段107-1號","phone":"(02)22806111#8304","latitude":"25.0773891","longitude":"121.487597","note":"銀級環保旅宿","county":"新北市","town":"三重區","village":"-"}},{"type":"Feature","geometry":{"type":"Point","coordinates":[120.332042,22.6284244]},"properties":{"serialnumber":"","name":"捷絲旅高雄中正館","address":"高雄市苓雅區中正一路134號","phone":"(07)9733587#8104","latitude":"22.6284244","longitude":"120.332042","note":"銀級環保旅宿","county":"高雄市","town":"苓雅區","village":"-"}},{"type":"Feature","geometry":{"type":"Point","coordinates":[120.302557,22.6354961]},"properties":{"serialnumber":"","name":"捷絲旅高雄站前館","address":"高雄市新興區中山一路280號1至14樓","phone":"(07)9733587#8104","latitude":"22.6354961","longitude":"120.302557","note":"銀級環保旅宿","county":"高雄市","town":"新興區","village":"-"}},{"type":"Feature","geometry":{"type":"Point","coordinates":[121.3608451,25.0661946]},"properties":{"serialnumber":"","name":"亞昕福朋喜來登酒店","address":"新北市林口區文化三路一段1號、1號2樓、1號3樓","phone":"(02)77276961","latitude":"25.0661946","longitude":"121.3608451","note":"銀級環保旅宿","county":"新北市","town":"林口區","village":"-"}},{"type":"Feature","geometry":{"type":"Point","coordinates":[121.5230059,25.0557323]},"properties":{"serialnumber":"","name":"台北中山意舍酒店","address":"臺北市中山區中山北路二段57之1號1至8樓","phone":"(02)25652828","latitude":"25.0557323","longitude":"121.5230059","note":"銀級環保旅宿","county":"臺北市","town":"中山區","village":"-"}},{"type":"Feature","geometry":{"type":"Point","coordinates":[120.8049772,21.9416754]},"properties":{"serialnumber":"","name":"凱撒大飯店","address":"屏東縣恆春鎮墾丁路6號","phone":"(08)8861888","latitude":"21.9416754","longitude":"120.8049772","note":"銀級環保旅宿","county":"屏東縣","town":"恆春鎮","village":"-"}},{"type":"Feature","geometry":{"type":"Point","coordinates":[121.5278139,25.0785832]},"properties":{"serialnumber":"","name":"圓山大飯店","address":"臺北市中山區中山北路4段1巷1號","phone":"(02)28861818#1007","latitude":"25.0785832","longitude":"121.5278139","note":"銀級環保旅宿","county":"臺北市","town":"中山區","village":"-"}},{"type":"Feature","geometry":{"type":"Point","coordinates":[120.3051246,22.6133275]},"properties":{"serialnumber":"","name":"和逸．高雄中山館","address":"高雄市前鎮區中山二路260號22-29樓","phone":"(07)9756670","latitude":"22.6133275","longitude":"120.3051246","note":"銀級環保旅宿","county":"高雄市","town":"前鎮區","village":"-"}},{"type":"Feature","geometry":{"type":"Point","coordinates":[121.2880531,25.0519676]},"properties":{"serialnumber":"","name":"尊爵天際大飯店","address":"桃園市蘆竹區南崁路一段108號","phone":"(03)2228100#6081","latitude":"25.0519676","longitude":"121.2880531","note":"銀級環保旅宿","county":"桃園市","town":"蘆竹區","village":"-"}},{"type":"Feature","geometry":{"type":"Point","coordinates":[120.501407,23.458313]},"properties":{"serialnumber":"","name":"仁義湖岸大酒店","address":"嘉義縣番路鄉內甕村後坑仔35號","phone":"(05)2769388","latitude":"23.458313","longitude":"120.501407","note":"銀級環保旅宿","county":"嘉義縣","town":"番路鄉","village":"-"}},{"type":"Feature","geometry":{"type":"Point","coordinates":[120.4693147,23.5581022]},"properties":{"serialnumber":"","name":"嘉義富野渡假酒店","address":"嘉義縣民雄鄉三興村升學一街3、5、7、9、11、13、15、17、19、21、23、25、27號","phone":"(05)2721688","latitude":"23.5581022","longitude":"120.4693147","note":"銀級環保旅宿","county":"嘉義縣","town":"民雄鄉","village":"-"}},{"type":"Feature","geometry":{"type":"Point","coordinates":[121.5652303,25.0413679]},"properties":{"serialnumber":"","name":"台北W飯店","address":"臺北市信義區忠孝東路五段10號","phone":"(02)77038765","latitude":"25.0413679","longitude":"121.5652303","note":"銀級環保旅宿","county":"臺北市","town":"信義區","village":"-"}},{"type":"Feature","geometry":{"type":"Point","coordinates":[120.690116,24.419876]},"properties":{"serialnumber":"","name":"享沐時光","address":"苗栗縣苑裡鎮石鎮里錦山8-1,8-2號","phone":"(037)742878#124","latitude":"24.419876","longitude":"120.690116","note":"銀級環保旅宿","county":"苗栗縣","town":"苑裡鎮","village":"-"}},{"type":"Feature","geometry":{"type":"Point","coordinates":[121.5290463,25.0931135]},"properties":{"serialnumber":"","name":"台北士林萬麗酒店","address":"臺北市士林區中山北路五段470巷8號","phone":"(02)88612389","latitude":"25.0931135","longitude":"121.5290463","note":"銀級環保旅宿","county":"臺北市","town":"士林區","village":"-"}},{"type":"Feature","geometry":{"type":"Point","coordinates":[120.95187615,24.46764981]},"properties":{"serialnumber":"","name":"泰安觀止溫泉會館","address":"苗栗縣泰安鄉錦水村圓墩58-7號","phone":"(037)941951#527","latitude":"24.46764981","longitude":"120.95187615","note":"銀級環保旅宿","county":"苗栗縣","town":"泰安鄉","village":"-"}},{"type":"Feature","geometry":{"type":"Point","coordinates":[120.6880471,24.1534689]},"properties":{"serialnumber":"","name":"星漾商旅","address":"臺中市北區錦南街17號,錦新街30號4樓至9樓,錦新街32號4樓至9樓","phone":"(04)22289008","latitude":"24.1534689","longitude":"120.6880471","note":"銀級環保旅宿","county":"臺中市","town":"北區","village":"-"}},{"type":"Feature","geometry":{"type":"Point","coordinates":[120.8167594,21.9371424]},"properties":{"serialnumber":"","name":"福容大飯店 墾丁","address":"屏東縣恆春鎮船帆路1000號","phone":"(08)8856969#340","latitude":"21.9371424","longitude":"120.8167594","note":"銀級環保旅宿","county":"屏東縣","town":"恆春鎮","village":"-"}},{"type":"Feature","geometry":{"type":"Point","coordinates":[121.746306,25.13515432]},"properties":{"serialnumber":"","name":"長榮桂冠酒店(基隆)","address":"基隆市中正區中正路62號之1","phone":"(02)24279988","latitude":"25.13515432","longitude":"121.746306","note":"銀級環保旅宿","county":"基隆市","town":"中正區","village":"-"}},{"type":"Feature","geometry":{"type":"Point","coordinates":[120.34430931,22.65690445]},"properties":{"serialnumber":"","name":"高雄圓山大飯店","address":"高雄市鳥松區圓山路2號","phone":"(07)3706007#519","latitude":"22.65690445","longitude":"120.34430931","note":"銀級環保旅宿","county":"高雄市","town":"鳥松區","village":"-"}},{"type":"Feature","geometry":{"type":"Point","coordinates":[120.5342592,23.7168074]},"properties":{"serialnumber":"","name":"三好國際酒店","address":"雲林縣斗六市斗六五路35號","phone":"(05)5510999#1500","latitude":"23.7168074","longitude":"120.5342592","note":"銀級環保旅宿","county":"雲林縣","town":"斗六市","village":"-"}},{"type":"Feature","geometry":{"type":"Point","coordinates":[120.7923101,21.94504985]},"properties":{"serialnumber":"","name":"墾丁夏都沙灘酒店","address":"屏東縣恆春鎮墾丁路451號","phone":"(0910)371823","latitude":"21.94504985","longitude":"120.7923101","note":"銀級環保旅宿","county":"屏東縣","town":"恆春鎮","village":"-"}},{"type":"Feature","geometry":{"type":"Point","coordinates":[120.198365,22.98734498]},"properties":{"serialnumber":"","name":"和逸·台南西門館","address":"臺南市中西區西門路一段658之2號4樓至13樓","phone":"(06)7026685","latitude":"22.98734498","longitude":"120.198365","note":"銀級環保旅宿","county":"臺南市","town":"中西區","village":"-"}},{"type":"Feature","geometry":{"type":"Point","coordinates":[120.2333014,22.98989403]},"properties":{"serialnumber":"","name":"台南老爺行旅","address":"臺南市東區中華東路一段368號1樓、6-10樓","phone":"(06)2361680#301","latitude":"22.98989403","longitude":"120.2333014","note":"銀級環保旅宿","county":"臺南市","town":"東區","village":"-"}},{"type":"Feature","geometry":{"type":"Point","coordinates":[120.23018861,22.9381044]},"properties":{"serialnumber":"","name":"捷絲旅 台南虎山館","address":"臺南市仁德區成功里5鄰文華路2段300號1~9樓，地下一、二樓","phone":"(06)2662218#8321","latitude":"22.9381044","longitude":"120.23018861","note":"銀級環保旅宿","county":"臺南市","town":"仁德區","village":"-"}},{"type":"Feature","geometry":{"type":"Point","coordinates":[121.326207,24.8825465]},"properties":{"serialnumber":"","name":"桃園大溪笠復威斯汀度假酒店","address":"桃園市大溪區日新路166號","phone":"(03)2725035","latitude":"24.8825465","longitude":"121.326207","note":"銀級環保旅宿","county":"桃園市","town":"大溪區","village":"-"}},{"type":"Feature","geometry":{"type":"Point","coordinates":[120.9036168,23.8367388]},"properties":{"serialnumber":"","name":"四季時光","address":"南投縣魚池鄉頭社村平和巷103-11號","phone":"(0932)376767","latitude":"23.8367388","longitude":"120.9036168","note":"銀級環保旅宿","county":"南投縣","town":"魚池鄉","village":"-"}},{"type":"Feature","geometry":{"type":"Point","coordinates":[120.3015175,22.6244552]},"properties":{"serialnumber":"","name":"高雄中央公園英迪格酒店","address":"高雄市新興區中山一路4號","phone":"(07)2721555#301","latitude":"22.6244552","longitude":"120.3015175","note":"銀級環保旅宿","county":"高雄市","town":"新興區","village":"-"}},{"type":"Feature","geometry":{"type":"Point","coordinates":[121.35429986,23.49373926]},"properties":{"serialnumber":"","name":"瑞穗天合國際觀光酒店","address":"花蓮縣瑞穗鄉溫泉路二段368號","phone":"(03)8876000#3260","latitude":"23.49373926","longitude":"121.35429986","note":"銀級環保旅宿","county":"花蓮縣","town":"瑞穗鄉","village":"-"}},{"type":"Feature","geometry":{"type":"Point","coordinates":[120.14888773,22.99936795]},"properties":{"serialnumber":"","name":"台南大員皇冠假日酒店","address":"臺南市安平區州平路289號","phone":"(06)5121888#6002","latitude":"22.99936795","longitude":"120.14888773","note":"銀級環保旅宿","county":"臺南市","town":"安平區","village":"-"}},{"type":"Feature","geometry":{"type":"Point","coordinates":[121.5343264,25.02366782]},"properties":{"serialnumber":"","name":"福華國際文教會館","address":"臺北市大安區新生南路3段30號(住宿棟1樓及5樓至14樓)","phone":"(02)77122323#2340","latitude":"25.02366782","longitude":"121.5343264","note":"銀級環保旅宿","county":"臺北市","town":"大安區","village":"-"}},{"type":"Feature","geometry":{"type":"Point","coordinates":[121.36272917,25.06036422]},"properties":{"serialnumber":"","name":"福容徠旅林口","address":"桃園市龜山區文二一街68號","phone":"(03)3277388#300","latitude":"25.06036422","longitude":"121.36272917","note":"銀級環保旅宿","county":"桃園市","town":"龜山區","village":"-"}},{"type":"Feature","geometry":{"type":"Point","coordinates":[120.5412334,24.0818211]},"properties":{"serialnumber":"","name":"提米好旅","address":"彰化縣彰化市成功路277號","phone":"(04)7061086#9","latitude":"24.0818211","longitude":"120.5412334","note":"銀級環保旅宿","county":"彰化縣","town":"彰化市","village":"-"}},{"type":"Feature","geometry":{"type":"Point","coordinates":[121.5805022,25.04930012]},"properties":{"serialnumber":"","name":"台北松山意舍酒店","address":"臺北市南港區市民大道7段8號17樓至21樓","phone":"(02)26532828#2100","latitude":"25.04930012","longitude":"121.5805022","note":"銀級環保旅宿","county":"臺北市","town":"南港區","village":"-"}},{"type":"Feature","geometry":{"type":"Point","coordinates":[120.624028,24.1797834]},"properties":{"serialnumber":"","name":"裕元花園酒店","address":"臺中市西屯區臺灣大道四段610號","phone":"(04)24655660#5030","latitude":"24.1797834","longitude":"120.624028","note":"銀級環保旅宿","county":"臺中市","town":"西屯區","village":"-"}},{"type":"Feature","geometry":{"type":"Point","coordinates":[121.6331949,23.9955351]},"properties":{"serialnumber":"","name":"福容大飯店花蓮","address":"花蓮縣花蓮市民生路51號","phone":"(03)8239988#7507","latitude":"23.9955351","longitude":"121.6331949","note":"銀級環保旅宿","county":"花蓮縣","town":"花蓮市","village":"-"}},{"type":"Feature","geometry":{"type":"Point","coordinates":[121.2428653,24.8178302]},"properties":{"serialnumber":"","name":"福華石門水庫渡假飯店","address":"桃園市龍潭區民富街176號","phone":"(03)4714888","latitude":"24.8178302","longitude":"121.2428653","note":"銀級環保旅宿","county":"桃園市","town":"龍潭區","village":"-"}},{"type":"Feature","geometry":{"type":"Point","coordinates":[121.7748992,24.83118384]},"properties":{"serialnumber":"","name":"長榮鳳凰酒店(礁溪)","address":"宜蘭縣礁溪鄉健康路77號","phone":"(03)9100988#2335","latitude":"24.83118384","longitude":"121.7748992","note":"銀級環保旅宿","county":"宜蘭縣","town":"礁溪鄉","village":"-"}},{"type":"Feature","geometry":{"type":"Point","coordinates":[120.6770607,24.1541402]},"properties":{"serialnumber":"","name":"星漾商旅(中清館)","address":"臺中市北區中清路一段63號","phone":"(04)22083888","latitude":"24.1541402","longitude":"120.6770607","note":"銀級環保旅宿","county":"臺中市","town":"北區","village":"-"}},{"type":"Feature","geometry":{"type":"Point","coordinates":[120.57674208,23.61522064]},"properties":{"serialnumber":"","name":"劍湖山渡假大飯店","address":"雲林縣古坑鄉永光村大湖口67-8號","phone":"(05)5829900#7214","latitude":"23.61522064","longitude":"120.57674208","note":"銀級環保旅宿","county":"雲林縣","town":"古坑鄉","village":"-"}},{"type":"Feature","geometry":{"type":"Point","coordinates":[121.77507282,24.82827907]},"properties":{"serialnumber":"","name":"山形閣","address":"宜蘭縣礁溪鄉中山路二段187號","phone":"(03)9872323","latitude":"24.82827907","longitude":"121.77507282","note":"銀級環保旅宿","county":"宜蘭縣","town":"礁溪鄉","village":"-"}},{"type":"Feature","geometry":{"type":"Point","coordinates":[120.9754445,23.959941]},"properties":{"serialnumber":"","name":"承萬尊爵渡假酒店","address":"南投縣埔里鎮樹人路131號","phone":"(049)2995757#6316","latitude":"23.959941","longitude":"120.9754445","note":"銀級環保旅館","county":"南投縣","town":"埔里鎮","village":"-"}},{"type":"Feature","geometry":{"type":"Point","coordinates":[121.5183769,25.0463736]},"properties":{"serialnumber":"","name":"天成大飯店","address":"臺北市中正區忠孝西路一段43號","phone":"(02)23118905#3705","latitude":"25.0463736","longitude":"121.5183769","note":"銀級環保旅宿","county":"臺北市","town":"中正區","village":"-"}},{"type":"Feature","geometry":{"type":"Point","coordinates":[121.54412138,23.94647799]},"properties":{"serialnumber":"","name":"秧悦美地度假酒店","address":"花蓮縣吉安鄉干城村干城二街95-9號","phone":"(03)8129168#2701","latitude":"23.94647799","longitude":"121.54412138","note":"銀級環保旅宿","county":"花蓮縣","town":"吉安鄉","village":"-"}},{"type":"Feature","geometry":{"type":"Point","coordinates":[121.79191523,24.84205386]},"properties":{"serialnumber":"","name":"HOFI VILLA和風飯店","address":"宜蘭縣頭城鎮宜三路一段56號","phone":"(03)9777711","latitude":"24.84205386","longitude":"121.79191523","note":"銀級環保旅宿","county":"宜蘭縣","town":"頭城鎮","village":"-"}},{"type":"Feature","geometry":{"type":"Point","coordinates":[121.30834627,24.34631026]},"properties":{"serialnumber":"","name":"武陵國民賓館","address":"臺中市和平區平等里武陵路3-1號","phone":"(04)25901258#2103","latitude":"24.34631026","longitude":"121.30834627","note":"銀級環保旅宿","county":"臺中市","town":"和平區","village":"-"}},{"type":"Feature","geometry":{"type":"Point","coordinates":[121.29762717,25.02466416]},"properties":{"serialnumber":"","name":"尊爵大飯店","address":"桃園市桃園區莊敬路一段300號","phone":"(03)3169090#8502","latitude":"25.02466416","longitude":"121.29762717","note":"銀級環保旅宿","county":"桃園市","town":"桃園區","village":"-"}},{"type":"Feature","geometry":{"type":"Point","coordinates":[121.57778557,25.07738056]},"properties":{"serialnumber":"","name":"凱旋酒店","address":"臺北市內湖區江南街55號3樓至9樓","phone":"(02)87527888#6203","latitude":"25.07738056","longitude":"121.57778557","note":"銀級環保旅宿","county":"臺北市","town":"內湖區","village":"-"}},{"type":"Feature","geometry":{"type":"Point","coordinates":[120.30813237,22.6337448]},"properties":{"serialnumber":"","name":"高雄福華大飯店","address":"高雄市新興區七賢一路311號","phone":"(07)2307737","latitude":"22.6337448","longitude":"120.30813237","note":"銀級環保旅宿","county":"高雄市","town":"新興區","village":"-"}},{"type":"Feature","geometry":{"type":"Point","coordinates":[121.17594977,25.06148034]},"properties":{"serialnumber":"","name":"桃園喜來登酒店","address":"桃園市大園區大觀路777號","phone":"(03)3850000#2605","latitude":"25.06148034","longitude":"121.17594977","note":"銀級環保旅宿","county":"桃園市","town":"大園區","village":"-"}},{"type":"Feature","geometry":{"type":"Point","coordinates":[121.50681761,25.03637048]},"properties":{"serialnumber":"","name":"台北花園大酒店","address":"臺北市中正區中華路2段1號","phone":"(02)23143300#3151","latitude":"25.03637048","longitude":"121.50681761","note":"銀級環保旅宿","county":"臺北市","town":"中正區","village":"-"}},{"type":"Feature","geometry":{"type":"Point","coordinates":[121.29156772,25.0466155]},"properties":{"serialnumber":"","name":"甲桂林商務旅館","address":"桃園市蘆竹區桃園街106號","phone":"03-3116799","latitude":"25.0466155","longitude":"121.29156772","note":"銀級環保旅宿","county":"桃園市","town":"蘆竹區","village":"-"}},{"type":"Feature","geometry":{"type":"Point","coordinates":[120.200205,23.001966]},"properties":{"serialnumber":"","name":"榮美金鬱金香酒店","address":"臺南市北區海安路三段50號","phone":"(06)2200800#6001","latitude":"23.001966","longitude":"120.200205","note":"銀級環保旅宿","county":"臺南市","town":"北區","village":"-"}},{"type":"Feature","geometry":{"type":"Point","coordinates":[121.369611,25.060283]},"properties":{"serialnumber":"","name":"福容大飯店 桃園機場捷運 A8","address":"桃園市龜山區復興一路2號3樓","phone":"(03)3285688#8770","latitude":"25.060283","longitude":"121.369611","note":"銀級環保旅宿","county":"桃園市","town":"龜山區","village":"-"}},{"type":"Feature","geometry":{"type":"Point","coordinates":[121.303228,25.013866]},"properties":{"serialnumber":"","name":"福容大飯店 桃園","address":"桃園市桃園區同安里大興西路一段200號","phone":"(03)3265800#300","latitude":"25.013866","longitude":"121.303228","note":"銀級環保旅宿","county":"桃園市","town":"桃園區","village":"同安里"}}]}