{"type":"FeatureCollection","features":[{"type":"Feature","geometry":{"type":"Point","coordinates":[120.807233,21.9416303]},"properties":{"serialnumber":"","name":"墾丁福華渡假飯店","address":"屏東縣恆春鎮墾丁里墾丁路2號","phone":"(08)8862324#2701","latitude":"21.9416303","longitude":"120.807233","note":"銅級環保旅宿","county":"屏東縣","town":"恆春鎮","village":"-"}},{"type":"Feature","geometry":{"type":"Point","coordinates":[120.6619879,24.1479899]},"properties":{"serialnumber":"","name":"美之旅商務飯店","address":"臺中市西區美村路一段269號1樓、2樓之1、2樓之2、3、4、5、6、7樓","phone":"(04)23024330","latitude":"24.1479899","longitude":"120.6619879","note":"銅級環保旅宿","county":"臺中市","town":"西區","village":"-"}},{"type":"Feature","geometry":{"type":"Point","coordinates":[121.2881398,24.8796641]},"properties":{"serialnumber":"","name":"小巷內","address":"桃園市大溪區中央路52-3號","phone":"(03)3881052","latitude":"24.8796641","longitude":"121.2881398","note":"銅級環保旅宿","county":"桃園市","town":"大溪區","village":"-"}},{"type":"Feature","geometry":{"type":"Point","coordinates":[120.3789087,22.3489403]},"properties":{"serialnumber":"","name":"小琉球古拉克民宿","address":"屏東縣琉球鄉本福村中山路61-20號","phone":"(08)8612229","latitude":"22.3489403","longitude":"120.3789087","note":"銅級環保旅宿","county":"屏東縣","town":"琉球鄉","village":"-"}},{"type":"Feature","geometry":{"type":"Point","coordinates":[120.4347578,24.0633677]},"properties":{"serialnumber":"","name":"鹿港澄悅酒店","address":"彰化縣鹿港鎮中正路598號1樓、5至8樓","phone":"(04)7785727","latitude":"24.0633677","longitude":"120.4347578","note":"銅級環保旅宿","county":"彰化縣","town":"鹿港鎮","village":"-"}},{"type":"Feature","geometry":{"type":"Point","coordinates":[120.3658296,22.3405954]},"properties":{"serialnumber":"","name":"夏堤民宿","address":"屏東縣琉球鄉上福村2鄰杉板路51巷2號","phone":"(08)8611155","latitude":"22.3405954","longitude":"120.3658296","note":"銅級環保旅宿","county":"屏東縣","town":"琉球鄉","village":"-"}},{"type":"Feature","geometry":{"type":"Point","coordinates":[120.2148541,22.971288]},"properties":{"serialnumber":"","name":"雲頂國際商旅","address":"臺南市南區大同路二段530號","phone":"(06)2687766","latitude":"22.971288","longitude":"120.2148541","note":"銅級環保旅宿","county":"臺南市","town":"南區","village":"-"}},{"type":"Feature","geometry":{"type":"Point","coordinates":[120.3208483,22.5980279]},"properties":{"serialnumber":"","name":"高雄富野渡假酒店","address":"高雄市前鎮區瑞田街99號","phone":"(07)8215299#7102","latitude":"22.5980279","longitude":"120.3208483","note":"銅級環保旅宿","county":"高雄市","town":"前鎮區","village":"-"}},{"type":"Feature","geometry":{"type":"Point","coordinates":[121.2870699,24.8817296]},"properties":{"serialnumber":"","name":"新南一二文創商行","address":"桃園市大溪區中山路１２號","phone":"(03)3884466","latitude":"24.8817296","longitude":"121.2870699","note":"銅級環保旅宿","county":"桃園市","town":"大溪區","village":"-"}},{"type":"Feature","geometry":{"type":"Point","coordinates":[120.2106477,22.9971672]},"properties":{"serialnumber":"","name":"台南大飯店","address":"臺南市中西區成功路1號","phone":"(06)2289101#2012","latitude":"22.9971672","longitude":"120.2106477","note":"銅級環保旅宿","county":"臺南市","town":"中西區","village":"-"}},{"type":"Feature","geometry":{"type":"Point","coordinates":[120.3006662,22.6354552]},"properties":{"serialnumber":"","name":"康橋商旅-六合夜市七賢館","address":"高雄市新興區同愛街28號1樓、30號","phone":"(07)288-5588","latitude":"22.6354552","longitude":"120.3006662","note":"銅級環保旅宿","county":"高雄市","town":"新興區","village":"-"}},{"type":"Feature","geometry":{"type":"Point","coordinates":[119.598976,23.647247]},"properties":{"serialnumber":"","name":"頌華私墅肆區民宿","address":"澎湖縣湖西鄉許家村6鄰港子尾120之5號","phone":"(06)9212953","latitude":"23.647247","longitude":"119.598976","note":"銅級環保旅宿","county":"澎湖縣","town":"湖西鄉","village":"-"}},{"type":"Feature","geometry":{"type":"Point","coordinates":[121.8183779,24.6663344]},"properties":{"serialnumber":"","name":"幸福蝸牛","address":"宜蘭縣五結鄉利澤西路6號","phone":"(03)9500047","latitude":"24.6663344","longitude":"121.8183779","note":"銅級環保旅宿","county":"宜蘭縣","town":"五結鄉","village":"-"}},{"type":"Feature","geometry":{"type":"Point","coordinates":[121.7004682,24.689363]},"properties":{"serialnumber":"","name":"夢想森林親子民宿","address":"宜蘭縣三星鄉三星鄉大德路二段613號","phone":"(03)9898113","latitude":"24.689363","longitude":"121.7004682","note":"銅級環保旅宿","county":"宜蘭縣","town":"三星鄉","village":"-"}},{"type":"Feature","geometry":{"type":"Point","coordinates":[121.8457027,25.1072814]},"properties":{"serialnumber":"","name":"神隱國度民宿","address":"新北市瑞芳區崙頂路90號","phone":"(09)05788650","latitude":"25.1072814","longitude":"121.8457027","note":"銅級環保旅宿","county":"新北市","town":"瑞芳區","village":"-"}},{"type":"Feature","geometry":{"type":"Point","coordinates":[121.9251912,25.0531773]},"properties":{"serialnumber":"","name":"海霞您的家","address":"新北市貢寮區仁里里14鄰仁愛路38號","phone":"(09)35204895","latitude":"25.0531773","longitude":"121.9251912","note":"銅級環保旅宿","county":"新北市","town":"貢寮區","village":"-"}},{"type":"Feature","geometry":{"type":"Point","coordinates":[120.457656,22.4680641]},"properties":{"serialnumber":"","name":"鐡馬騎跡","address":"屏東縣東港鎮新學路50號","phone":"(0952)848898","latitude":"22.4680641","longitude":"120.457656","note":"銅級環保旅宿","county":"屏東縣","town":"東港鎮","village":"-"}},{"type":"Feature","geometry":{"type":"Point","coordinates":[120.4583179,22.4658729]},"properties":{"serialnumber":"","name":"秘境民宿","address":"屏東縣東港鎮屏東縣東港鎮水源路223號(新和段737-3地號)","phone":"(08)8333345","latitude":"22.4658729","longitude":"120.4583179","note":"銅級環保旅宿","county":"屏東縣","town":"東港鎮","village":"-"}},{"type":"Feature","geometry":{"type":"Point","coordinates":[121.7962893,24.6911892]},"properties":{"serialnumber":"","name":"讀好民宿","address":"宜蘭縣五結鄉五結中路二段241巷7弄16號","phone":"(0920)023139","latitude":"24.6911892","longitude":"121.7962893","note":"銅級環保旅宿","county":"宜蘭縣","town":"五結鄉","village":"-"}},{"type":"Feature","geometry":{"type":"Point","coordinates":[120.4585246,22.4659472]},"properties":{"serialnumber":"","name":"遇見民宿","address":"屏東縣東港鎮水源路221號(新和段737-4地號)","phone":"(08)8333345","latitude":"22.4659472","longitude":"120.4585246","note":"銅級環保旅宿","county":"屏東縣","town":"東港鎮","village":"-"}},{"type":"Feature","geometry":{"type":"Point","coordinates":[121.5988081,23.9868316]},"properties":{"serialnumber":"","name":"麗格休閒飯店","address":"花蓮縣花蓮市商校街258.260.262號","phone":"(03)8349922","latitude":"23.9868316","longitude":"121.5988081","note":"銅級環保旅宿","county":"花蓮縣","town":"花蓮市","village":"-"}},{"type":"Feature","geometry":{"type":"Point","coordinates":[121.6255372,23.9911758]},"properties":{"serialnumber":"","name":"麗軒國際飯店","address":"花蓮縣花蓮市中美路99之1號","phone":"(03)8246898","latitude":"23.9911758","longitude":"121.6255372","note":"銅級環保旅宿","county":"花蓮縣","town":"花蓮市","village":"-"}},{"type":"Feature","geometry":{"type":"Point","coordinates":[120.4885715,22.4285787]},"properties":{"serialnumber":"","name":"發現號特色民宿","address":"屏東縣林邊鄉崎峰村裕後路90號","phone":"(08)8750300","latitude":"22.4285787","longitude":"120.4885715","note":"銅級環保旅宿","county":"屏東縣","town":"林邊鄉","village":"-"}},{"type":"Feature","geometry":{"type":"Point","coordinates":[120.5043168,23.3366245]},"properties":{"serialnumber":"","name":"關子嶺富野溫泉會館","address":"臺南市白河區關子嶺28號","phone":"(06)6822288","latitude":"23.3366245","longitude":"120.5043168","note":"銅級環保旅宿","county":"臺南市","town":"白河區","village":"-"}},{"type":"Feature","geometry":{"type":"Point","coordinates":[121.442423,25.170282]},"properties":{"serialnumber":"","name":"旅行邦尼","address":"新北市淡水區中山路87巷7號","phone":"(09)28824850","latitude":"25.170282","longitude":"121.442423","note":"銅級環保旅宿","county":"新北市","town":"淡水區","village":"-"}},{"type":"Feature","geometry":{"type":"Point","coordinates":[121.6080858,23.9725617]},"properties":{"serialnumber":"","name":"今古安民宿","address":"花蓮縣花蓮市重慶路353巷30號","phone":"(03)8345555","latitude":"23.9725617","longitude":"121.6080858","note":"銅級環保旅宿","county":"花蓮縣","town":"花蓮市","village":"-"}},{"type":"Feature","geometry":{"type":"Point","coordinates":[121.5990714,23.9647599]},"properties":{"serialnumber":"","name":"波西米亞民宿","address":"花蓮縣吉安鄉東昌村13鄰東海一街168號","phone":"(0385)31234","latitude":"23.9647599","longitude":"121.5990714","note":"銅級環保旅宿","county":"花蓮縣","town":"吉安鄉","village":"-"}},{"type":"Feature","geometry":{"type":"Point","coordinates":[120.5862073,22.873503]},"properties":{"serialnumber":"","name":"美綠民宿","address":"高雄市美濃區獅山里竹門14-2號","phone":"(07)6851111","latitude":"22.873503","longitude":"120.5862073","note":"銅級環保旅宿","county":"高雄市","town":"美濃區","village":"-"}},{"type":"Feature","geometry":{"type":"Point","coordinates":[120.2810214,22.6255619]},"properties":{"serialnumber":"","name":"夏優旅居","address":"高雄市鹽埕區新興街67號","phone":"(07)5328885","latitude":"22.6255619","longitude":"120.2810214","note":"銅級環保旅宿","county":"高雄市","town":"鹽埕區","village":"-"}},{"type":"Feature","geometry":{"type":"Point","coordinates":[120.3087504,22.6187349]},"properties":{"serialnumber":"","name":"寒軒國際大飯店","address":"高雄市苓雅區四維三路三十三號","phone":"(0980)556224","latitude":"22.6187349","longitude":"120.3087504","note":"銅級環保旅宿","county":"高雄市","town":"苓雅區","village":"-"}},{"type":"Feature","geometry":{"type":"Point","coordinates":[120.318839,23.1574434]},"properties":{"serialnumber":"","name":"美墅館","address":"臺南市善化區昌隆里9鄰東勢寮131之8號","phone":"(09)20656908","latitude":"23.1574434","longitude":"120.318839","note":"銅級環保旅宿","county":"臺南市","town":"善化區","village":"-"}},{"type":"Feature","geometry":{"type":"Point","coordinates":[121.6900049,25.2044534]},"properties":{"serialnumber":"","name":"薆悅酒店野柳渡假館一館","address":"新北市萬里區野柳里港東路162號之2","phone":"(02)77035770#623","latitude":"25.2044534","longitude":"121.6900049","note":"銅級環保旅宿","county":"新北市","town":"萬里區","village":"-"}},{"type":"Feature","geometry":{"type":"Point","coordinates":[121.4390157,25.17168]},"properties":{"serialnumber":"","name":"台北旅人國際青年旅館","address":"新北市淡水區三民街22、22之1、22之2、22之3、22之4號","phone":"(02)26258222","latitude":"25.17168","longitude":"121.4390157","note":"銅級環保旅宿","county":"新北市","town":"淡水區","village":"-"}},{"type":"Feature","geometry":{"type":"Point","coordinates":[120.36319,22.618727]},"properties":{"serialnumber":"","name":"月光寶盒旅店","address":"高雄市鳳山區黃埔新村東一巷80號","phone":"(09)33631615","latitude":"22.618727","longitude":"120.36319","note":"銅級環保旅宿","county":"高雄市","town":"鳳山區","village":"-"}},{"type":"Feature","geometry":{"type":"Point","coordinates":[120.3127831,22.6296477]},"properties":{"serialnumber":"","name":"高雄商旅","address":"高雄市新興區民族二路33號1、4~10樓；37號1、3~10樓","phone":"(09)19546590","latitude":"22.6296477","longitude":"120.3127831","note":"銅級環保旅宿","county":"高雄市","town":"新興區","village":"-"}},{"type":"Feature","geometry":{"type":"Point","coordinates":[120.36319,22.618727]},"properties":{"serialnumber":"","name":"鳳山79 背包客","address":"高雄市鳳山區黃埔新村東一巷79號","phone":"(07)5524545","latitude":"22.618727","longitude":"120.36319","note":"銅級環保旅宿","county":"高雄市","town":"鳳山區","village":"-"}},{"type":"Feature","geometry":{"type":"Point","coordinates":[120.6631766,24.1559989]},"properties":{"serialnumber":"","name":"台中金典酒店","address":"臺中市西區健行路1049號","phone":"(04)23288000#6692","latitude":"24.1559989","longitude":"120.6631766","note":"銅級環保旅宿","county":"臺中市","town":"西區","village":"-"}},{"type":"Feature","geometry":{"type":"Point","coordinates":[120.2994529,22.7090482]},"properties":{"serialnumber":"","name":"J.S 23","address":"高雄市楠梓區新昌街10巷15弄23號","phone":"0985309531","latitude":"22.7090482","longitude":"120.2994529","note":"銅級環保旅宿","county":"高雄市","town":"楠梓區","village":"-"}},{"type":"Feature","geometry":{"type":"Point","coordinates":[118.3432727,24.4467932]},"properties":{"serialnumber":"","name":"KMQM","address":"金門縣金寧鄉盤山村下堡28之1號","phone":"(0912)304489","latitude":"24.4467932","longitude":"118.3432727","note":"銅級環保旅宿","county":"金門縣","town":"金寧鄉","village":"-"}},{"type":"Feature","geometry":{"type":"Point","coordinates":[120.4447759,24.0549412]},"properties":{"serialnumber":"","name":"泊寓","address":"彰化縣鹿港鎮鹿興路57巷3號","phone":"(04)7115655#120","latitude":"24.0549412","longitude":"120.4447759","note":"銅級環保旅宿","county":"彰化縣","town":"鹿港鎮","village":"-"}},{"type":"Feature","geometry":{"type":"Point","coordinates":[120.64583,24.183109]},"properties":{"serialnumber":"","name":"臺中逢甲智選假日酒店","address":"臺中市西屯區福星北三街33巷28號","phone":"(04)27083911#6101","latitude":"24.183109","longitude":"120.64583","note":"銅級環保旅宿","county":"臺中市","town":"西屯區","village":"-"}},{"type":"Feature","geometry":{"type":"Point","coordinates":[121.1294545,22.7932183]},"properties":{"serialnumber":"","name":"娜路彎花園酒店","address":"臺東縣台東市新興路77號","phone":"(089)231111","latitude":"22.7932183","longitude":"121.1294545","note":"銅級環保旅宿","county":"臺東縣","town":"臺東市","village":"-"}},{"type":"Feature","geometry":{"type":"Point","coordinates":[121.1247681,22.7685848]},"properties":{"serialnumber":"","name":"娜路彎會館","address":"臺東縣台東市中興路2段385號","phone":"(089)235500","latitude":"22.7685848","longitude":"121.1247681","note":"銅級環保旅宿","county":"臺東縣","town":"臺東市","village":"-"}},{"type":"Feature","geometry":{"type":"Point","coordinates":[120.2853214,22.6201362]},"properties":{"serialnumber":"","name":"城市商旅駁二館","address":"高雄市鹽埕區公園二路83號1至11樓","phone":"(07)5322777","latitude":"22.6201362","longitude":"120.2853214","note":"銅級環保旅宿","county":"高雄市","town":"鹽埕區","village":"-"}},{"type":"Feature","geometry":{"type":"Point","coordinates":[120.2844422,22.6189975]},"properties":{"serialnumber":"","name":"城市商旅高雄真愛館","address":"高雄市鹽埕區大義街1號","phone":"(07)5215116#9303","latitude":"22.6189975","longitude":"120.2844422","note":"銅級環保旅宿","county":"高雄市","town":"鹽埕區","village":"-"}},{"type":"Feature","geometry":{"type":"Point","coordinates":[120.30455,22.6277511]},"properties":{"serialnumber":"","name":"城市商旅美麗島館(HOTEL PAPA WHALE)","address":"高雄市新興區民生一路328號1-7樓","phone":"(07)2519888","latitude":"22.6277511","longitude":"120.30455","note":"銅級環保旅宿","county":"高雄市","town":"新興區","village":"-"}},{"type":"Feature","geometry":{"type":"Point","coordinates":[121.1439117,22.761315]},"properties":{"serialnumber":"","name":"娜路彎銀河行館","address":"臺東縣台東市豐興路88號","phone":"(089)383366","latitude":"22.761315","longitude":"121.1439117","note":"銅級環保旅宿","county":"臺東縣","town":"臺東市","village":"-"}},{"type":"Feature","geometry":{"type":"Point","coordinates":[120.735021,24.405753]},"properties":{"serialnumber":"","name":"揚昊民宿","address":"苗栗縣苑裡鎮蕉埔里8鄰蕉埔86之6號","phone":"(037)747711#9","latitude":"24.405753","longitude":"120.735021","note":"銅級環保旅宿","county":"苗栗縣","town":"苑裡鎮","village":"-"}},{"type":"Feature","geometry":{"type":"Point","coordinates":[120.735021,24.405753]},"properties":{"serialnumber":"","name":"綠意山莊民宿","address":"苗栗縣苑裡鎮蕉埔里8鄰蕉埔86之5號","phone":"(037)747711#9","latitude":"24.405753","longitude":"120.735021","note":"銅級環保旅宿","county":"苗栗縣","town":"苑裡鎮","village":"-"}},{"type":"Feature","geometry":{"type":"Point","coordinates":[120.3037879,22.6503854]},"properties":{"serialnumber":"","name":"城市商旅德立莊博愛館","address":"高雄市三民區博愛一路338號地上1至10樓","phone":"(07)3238777#9301","latitude":"22.6503854","longitude":"120.3037879","note":"銅級環保旅宿","county":"高雄市","town":"三民區","village":"-"}},{"type":"Feature","geometry":{"type":"Point","coordinates":[121.0383102,24.8076245]},"properties":{"serialnumber":"","name":"新竹安捷國際酒店","address":"新竹縣竹北市復興三路二段168號14樓-18樓","phone":"(03)6209777#660","latitude":"24.8076245","longitude":"121.0383102","note":"銅級環保旅宿","county":"新竹縣","town":"竹北市","village":"-"}},{"type":"Feature","geometry":{"type":"Point","coordinates":[121.34743423,24.80532879]},"properties":{"serialnumber":"","name":"基拉耳景觀民宿","address":"桃園市復興區溪口路16巷29號","phone":"(02)23965188#594","latitude":"24.80532879","longitude":"121.34743423","note":"銅級環保旅宿","county":"桃園市","town":"復興區","village":"-"}},{"type":"Feature","geometry":{"type":"Point","coordinates":[120.492768,22.673401]},"properties":{"serialnumber":"","name":"富光大旅社","address":"屏東縣屏東市公園路19-7號","phone":"(08)7345656","latitude":"22.673401","longitude":"120.492768","note":"銅級環保旅宿","county":"屏東縣","town":"屏東市","village":"-"}},{"type":"Feature","geometry":{"type":"Point","coordinates":[121.52259395,25.05141282]},"properties":{"serialnumber":"","name":"台北中山九昱希爾頓逸林酒店","address":"臺北市中山區中山北路一段121巷1之1號, 121巷1號1樓至14樓","phone":"(02)66253281","latitude":"25.05141282","longitude":"121.52259395","note":"銅級環保旅宿","county":"臺北市","town":"中山區","village":"-"}},{"type":"Feature","geometry":{"type":"Point","coordinates":[120.9713894,24.8061399]},"properties":{"serialnumber":"","name":"迎曦大飯店","address":"新竹市東區親仁里文化街10號2-10樓","phone":"(03)5347266#124","latitude":"24.8061399","longitude":"120.9713894","note":"銅級環保旅宿","county":"新竹市","town":"東區","village":"-"}},{"type":"Feature","geometry":{"type":"Point","coordinates":[121.1967386,23.10578184]},"properties":{"serialnumber":"","name":"台灣糖業股份有限公司池上牧野渡假村","address":"臺東縣池上鄉新興村新興110號","phone":"(089)862736#1001","latitude":"23.10578184","longitude":"121.1967386","note":"銅級環保旅宿","county":"臺東縣","town":"池上鄉","village":"-"}},{"type":"Feature","geometry":{"type":"Point","coordinates":[120.98002487,24.86920197]},"properties":{"serialnumber":"","name":"小叮噹科學遊樂區生活大師會館","address":"新竹縣新豐鄉松柏村康和路199號","phone":"(03)5592132","latitude":"24.86920197","longitude":"120.98002487","note":"銅級環保旅宿","county":"新竹縣","town":"新豐鄉","village":"-"}},{"type":"Feature","geometry":{"type":"Point","coordinates":[121.00167913,24.20165423]},"properties":{"serialnumber":"","name":"統一谷關渡假村","address":"臺中市和平區博愛里東關路一段188號","phone":"(04)25950000","latitude":"24.20165423","longitude":"121.00167913","note":"銅級環保旅宿","county":"臺中市","town":"和平區","village":"-"}},{"type":"Feature","geometry":{"type":"Point","coordinates":[121.6117958,23.97426187]},"properties":{"serialnumber":"","name":"麗翔大飯店","address":"花蓮縣花蓮市花崗街2、4、6、8、10號","phone":"(03)8323737","latitude":"23.97426187","longitude":"121.6117958","note":"銅級環保旅宿","county":"花蓮縣","town":"花蓮市","village":"-"}},{"type":"Feature","geometry":{"type":"Point","coordinates":[120.54375184,23.44395621]},"properties":{"serialnumber":"","name":"阿里山東方明珠國際大飯店","address":"嘉義縣中埔鄉社口村檨仔林23號","phone":"(05)2536999","latitude":"23.44395621","longitude":"120.54375184","note":"銅級環保旅宿","county":"嘉義縣","town":"中埔鄉","village":"-"}},{"type":"Feature","geometry":{"type":"Point","coordinates":[121.2177233,24.76708625]},"properties":{"serialnumber":"","name":"統一渡假村","address":"新竹縣關西鎮金山里34號","phone":"(03)5478888","latitude":"24.76708625","longitude":"121.2177233","note":"銅級環保旅宿","county":"新竹縣","town":"關西鎮","village":"-"}},{"type":"Feature","geometry":{"type":"Point","coordinates":[121.5493234,25.0264311]},"properties":{"serialnumber":"","name":"台北遠東香格里拉","address":"臺北市大安區敦化南路二段201號","phone":"(02)23788888#6608","latitude":"25.0264311","longitude":"121.5493234","note":"銅級環保旅宿","county":"臺北市","town":"大安區","village":"-"}},{"type":"Feature","geometry":{"type":"Point","coordinates":[121.5255369,25.06470274]},"properties":{"serialnumber":"","name":"九昱晴美","address":"臺北市中山區林森北路568號2樓至13樓，3樓之1、2、3、5、6至12樓之1、2、3、5、6，13樓之1","phone":"(02)66080807#105","latitude":"25.06470274","longitude":"121.5255369","note":"銅級環保旅宿","county":"臺北市","town":"中山區","village":"-"}},{"type":"Feature","geometry":{"type":"Point","coordinates":[121.28762533,24.87943223]},"properties":{"serialnumber":"","name":"秘境41","address":"桃園市大溪區興和里中央路41號","phone":"(03)3887111","latitude":"24.87943223","longitude":"121.28762533","note":"銅級環保旅宿","county":"桃園市","town":"大溪區","village":"-"}},{"type":"Feature","geometry":{"type":"Point","coordinates":[121.12448487,22.79230379]},"properties":{"serialnumber":"","name":"趣淘漫旅-台東","address":"臺東縣台東市新站路260號","phone":"(089)231188#7187","latitude":"22.79230379","longitude":"121.12448487","note":"銅級環保旅宿","county":"臺東縣","town":"台東市","village":"-"}},{"type":"Feature","geometry":{"type":"Point","coordinates":[121.1574738,22.76240667]},"properties":{"serialnumber":"","name":"伊塔原旅臺東縣原住民文化會館","address":"臺東縣台東市中山路10號","phone":"(089)34060","latitude":"22.76240667","longitude":"121.1574738","note":"銅級環保旅宿","county":"臺東縣","town":"台東市","village":"-"}},{"type":"Feature","geometry":{"type":"Point","coordinates":[121.28761353,24.87934827]},"properties":{"serialnumber":"","name":"大溪老城四季行館","address":"桃園市大溪區中央路37號","phone":"(03)3881818","latitude":"24.87934827","longitude":"121.28761353","note":"銅級環保旅宿","county":"桃園市","town":"大溪區","village":"-"}},{"type":"Feature","geometry":{"type":"Point","coordinates":[121.30826924,24.99282472]},"properties":{"serialnumber":"","name":"嘉仕特飯店","address":"桃園市桃園區中山路203號","phone":"(03)3343999","latitude":"24.99282472","longitude":"121.30826924","note":"銅級環保旅宿","county":"桃園市","town":"桃園區","village":"-"}},{"type":"Feature","geometry":{"type":"Point","coordinates":[120.43793327,23.48119056]},"properties":{"serialnumber":"","name":"嘉義智選假日酒店","address":"嘉義市西區中興路69號B2至13層樓","phone":"(05)2335899#801","latitude":"23.48119056","longitude":"120.43793327","note":"銅級環保旅宿","county":"嘉義市","town":"西區","village":"-"}},{"type":"Feature","geometry":{"type":"Point","coordinates":[121.5229496,25.05370696]},"properties":{"serialnumber":"","name":"老爺大酒店","address":"臺北市中山區中山北路2段37-1號","phone":"(02)25423299#359","latitude":"25.05370696","longitude":"121.5229496","note":"銅級環保旅宿","county":"臺北市","town":"中山區","village":"-"}},{"type":"Feature","geometry":{"type":"Point","coordinates":[121.3126409,23.3328292]},"properties":{"serialnumber":"","name":"山鄰山林青年文旅","address":"花蓮縣玉里鎮大同路226.228號","phone":"(03)8887228","latitude":"23.3328292","longitude":"121.3126409","note":"銅級環保旅宿","county":"花蓮縣","town":"玉里鎮","village":"-"}},{"type":"Feature","geometry":{"type":"Point","coordinates":[120.87947674,24.68502563]},"properties":{"serialnumber":"","name":"橘子民宿","address":"苗栗縣竹南鎮竹南里7鄰民治街12號","phone":"(0972)092658","latitude":"24.68502563","longitude":"120.87947674","note":"銅級環保旅宿","county":"苗栗縣","town":"竹南鎮","village":"-"}},{"type":"Feature","geometry":{"type":"Point","coordinates":[120.30707905,22.61460908]},"properties":{"serialnumber":"","name":"旅悅國際青年旅館","address":"高雄市前鎮區三多三路211號3樓及4樓","phone":"(07)3359006","latitude":"22.61460908","longitude":"120.30707905","note":"銅級環保旅宿","county":"高雄市","town":"前鎮區","village":"-"}},{"type":"Feature","geometry":{"type":"Point","coordinates":[120.17122194,22.99709523]},"properties":{"serialnumber":"","name":"維悅酒店","address":"臺南市安平區慶平路539號 1至5樓及地下1樓","phone":"(06)2950888#1125","latitude":"22.99709523","longitude":"120.17122194","note":"銅級環保旅宿","county":"臺南市","town":"安平區","village":"-"}},{"type":"Feature","geometry":{"type":"Point","coordinates":[118.3171952,24.4339889]},"properties":{"serialnumber":"","name":"如一家精緻民宿","address":"金門縣金城鎮珠浦北路35-1號","phone":"(082)322167","latitude":"24.4339889","longitude":"118.3171952","note":"銅級環保旅宿","county":"金門縣","town":"金城鎮","village":"-"}},{"type":"Feature","geometry":{"type":"Point","coordinates":[121.3656436,25.0540496]},"properties":{"serialnumber":"","name":"悅徠舘","address":"桃園市龜山區興華三街18號2樓之1","phone":"(03)3280177","latitude":"25.0540496","longitude":"121.3656436","note":"銅級環保旅宿","county":"桃園市","town":"龜山區","village":"-"}},{"type":"Feature","geometry":{"type":"Point","coordinates":[121.3984674,24.7854824]},"properties":{"serialnumber":"","name":"小烏來山莊","address":"桃園市復興區義盛里1鄰宇內路99號","phone":"(03)3821199","latitude":"24.7854824","longitude":"121.3984674","note":"銅級環保旅宿","county":"桃園市","town":"復興區","village":"-"}},{"type":"Feature","geometry":{"type":"Point","coordinates":[121.34265143,24.80359869]},"properties":{"serialnumber":"","name":"河那灣","address":"桃園市復興區澤仁里3鄰溪口台41號","phone":"(0919)235303","latitude":"24.80359869","longitude":"121.34265143","note":"銅級環保旅宿","county":"桃園市","town":"復興區","village":"-"}},{"type":"Feature","geometry":{"type":"Point","coordinates":[121.77281711,24.82875675]},"properties":{"serialnumber":"","name":"晶泉丰旅","address":"宜蘭縣礁溪鄉溫泉路67號2至10樓","phone":"(03)9100000#6105","latitude":"24.82875675","longitude":"121.77281711","note":"銅級環保旅宿","county":"宜蘭縣","town":"礁溪鄉","village":"-"}},{"type":"Feature","geometry":{"type":"Point","coordinates":[121.5095061,25.04490466]},"properties":{"serialnumber":"","name":"捷絲旅西門町店","address":"臺北市中正區中華路一段41號5樓至9樓","phone":"(02)25215000","latitude":"25.04490466","longitude":"121.5095061","note":"銅級環保旅宿","county":"臺北市","town":"中正區","village":"-"}},{"type":"Feature","geometry":{"type":"Point","coordinates":[121.41993677,23.65676483]},"properties":{"serialnumber":"","name":"台糖花蓮旅館","address":"花蓮縣光復鄉大進村糖廠街19號","phone":"(03)8704125#621","latitude":"23.65676483","longitude":"121.41993677","note":"銅級環保旅宿","county":"花蓮縣","town":"光復鄉","village":"-"}},{"type":"Feature","geometry":{"type":"Point","coordinates":[121.5098341,25.04536176]},"properties":{"serialnumber":"","name":"台糖台北會館","address":"臺北市中正區中華路一段39號3至5樓","phone":"(02)23885522#5001","latitude":"25.04536176","longitude":"121.5098341","note":"銅級環保旅宿","county":"臺北市","town":"中正區","village":"-"}},{"type":"Feature","geometry":{"type":"Point","coordinates":[121.5098341,25.04536176]},"properties":{"serialnumber":"","name":"台糖台北會館","address":"臺北市中正區中華路一段39號3至5樓","phone":"(02)23885522#5001","latitude":"25.04536176","longitude":"121.5098341","note":"銅級環保旅宿","county":"臺北市","town":"中正區","village":"-"}},{"type":"Feature","geometry":{"type":"Point","coordinates":[120.15505153,22.99869499]},"properties":{"serialnumber":"","name":"福爾摩沙遊艇酒店","address":"臺南市安平區王城里13鄰安平路988號1至10樓","phone":"(06)3911313","latitude":"22.99869499","longitude":"120.15505153","note":"銅級環保旅宿","county":"臺南市","town":"安平區","village":"-"}},{"type":"Feature","geometry":{"type":"Point","coordinates":[120.20842727,22.99758828]},"properties":{"serialnumber":"","name":"三道門建築文創旅店","address":"臺南市中西區成功路75、77號","phone":"(3088)2223088","latitude":"22.99758828","longitude":"120.20842727","note":"銅級環保旅宿","county":"臺南市","town":"中西區","village":"-"}},{"type":"Feature","geometry":{"type":"Point","coordinates":[121.12729987,22.78932802]},"properties":{"serialnumber":"","name":"奧斯卡去旅行民宿","address":"臺東縣臺東市興安路一段167號","phone":"(0910)633944","latitude":"22.78932802","longitude":"121.12729987","note":"銅級環保旅館","county":"臺東縣","town":"臺東市","village":"-"}},{"type":"Feature","geometry":{"type":"Point","coordinates":[121.12733323,22.78899049]},"properties":{"serialnumber":"","name":"小古堡民宿","address":"臺東縣台東市興安路一段165號","phone":"(0910)633944","latitude":"22.78899049","longitude":"121.12733323","note":"銅級環保旅宿","county":"臺東縣","town":"臺東市","village":"-"}},{"type":"Feature","geometry":{"type":"Point","coordinates":[121.12732588,22.78906586]},"properties":{"serialnumber":"","name":"奧斯卡民宿","address":"臺東縣台東市興安路1段175號","phone":"(0965)329000","latitude":"22.78906586","longitude":"121.12732588","note":"銅級環保旅宿","county":"臺東縣","town":"臺東市","village":"-"}},{"type":"Feature","geometry":{"type":"Point","coordinates":[120.53020444,23.89702288]},"properties":{"serialnumber":"","name":"日日森旅二館","address":"彰化縣田尾鄉民族路一段185巷11號","phone":"(04)8221669","latitude":"23.89702288","longitude":"120.53020444","note":"銅級環保旅宿","county":"彰化縣","town":"田尾鄉","village":"-"}},{"type":"Feature","geometry":{"type":"Point","coordinates":[121.60187554,23.9853057]},"properties":{"serialnumber":"","name":"爸爸萬歲民宿","address":"花蓮縣花蓮市延平街68巷27號","phone":"(0900)757520","latitude":"23.9853057","longitude":"121.60187554","note":"銅級環保旅宿","county":"花蓮縣","town":"花蓮市","village":"-"}},{"type":"Feature","geometry":{"type":"Point","coordinates":[121.1531159,22.75527659]},"properties":{"serialnumber":"","name":"好室民宿","address":"臺東縣台東市中正路251巷9號","phone":"(0905)583758","latitude":"22.75527659","longitude":"121.1531159","note":"銅級環保旅宿","county":"臺東縣","town":"臺東市","village":"-"}},{"type":"Feature","geometry":{"type":"Point","coordinates":[121.15580347,22.75278848]},"properties":{"serialnumber":"","name":"福美民宿","address":"臺東縣台東市精誠路241號","phone":"(089)328466","latitude":"22.75278848","longitude":"121.15580347","note":"銅級環保旅宿","county":"臺東縣","town":"臺東市","village":"-"}},{"type":"Feature","geometry":{"type":"Point","coordinates":[121.7724881,24.82874356]},"properties":{"serialnumber":"","name":"捷絲旅礁溪館","address":"宜蘭縣礁溪鄉德陽路24巷8號、10號","phone":"(03)9102000#8104","latitude":"24.82874356","longitude":"121.7724881","note":"銅級環保旅宿","county":"宜蘭縣","town":"礁溪鄉","village":"-"}},{"type":"Feature","geometry":{"type":"Point","coordinates":[121.74208777,24.6793738]},"properties":{"serialnumber":"","name":"老公老婆友善民宿","address":"宜蘭縣冬山鄉境安路345號","phone":"(03) 9519013","latitude":"24.6793738","longitude":"121.74208777","note":"銅級環保旅宿","county":"宜蘭縣","town":"冬山鄉","village":"-"}},{"type":"Feature","geometry":{"type":"Point","coordinates":[121.21398327,25.01929]},"properties":{"serialnumber":"","name":"綠藤輕旅","address":"桃園市大園區中山南路二段673號","phone":"(03)2873043","latitude":"25.01929","longitude":"121.21398327","note":"銅級環保旅宿","county":"桃園市","town":"大園區","village":"-"}},{"type":"Feature","geometry":{"type":"Point","coordinates":[121.1392558,22.9304991]},"properties":{"serialnumber":"","name":"台東Deer  House民宿","address":"臺東縣鹿野鄉永安村1鄰永安路７１號","phone":"(089)552224","latitude":"22.9304991","longitude":"121.1392558","note":"銅級環保旅宿","county":"臺東縣","town":"鹿野鄉","village":"-"}},{"type":"Feature","geometry":{"type":"Point","coordinates":[120.4855197,22.679288]},"properties":{"serialnumber":"","name":"勝利131民宿","address":"屏東縣屏東市勝利路131號","phone":"(08)7320099","latitude":"22.679288","longitude":"120.4855197","note":"銅級環保旅宿","county":"屏東縣","town":"屏東市","village":"-"}},{"type":"Feature","geometry":{"type":"Point","coordinates":[120.48561737,22.6792654]},"properties":{"serialnumber":"","name":"勝利127民宿","address":"屏東縣屏東市勝利路127號","phone":"(08)7320099","latitude":"22.6792654","longitude":"120.48561737","note":"銅級環保旅宿","county":"屏東縣","town":"屏東市","village":"-"}},{"type":"Feature","geometry":{"type":"Point","coordinates":[121.12432217,22.77774768]},"properties":{"serialnumber":"","name":"泡泡森林民宿","address":"臺東縣台東市南一街40號","phone":"0986866545","latitude":"22.77774768","longitude":"121.12432217","note":"銅級環保旅宿","county":"臺東縣","town":"臺東市","village":"-"}},{"type":"Feature","geometry":{"type":"Point","coordinates":[120.963283,22.53397]},"properties":{"serialnumber":"","name":"打個蛋海旅民宿","address":"臺東縣太麻里鄉金崙4鄰129號","phone":"(089)771551","latitude":"22.53397","longitude":"120.963283","note":"銅級環保旅宿","county":"臺東縣","town":"太麻里鄉","village":"-"}},{"type":"Feature","geometry":{"type":"Point","coordinates":[121.12321927,22.77859019]},"properties":{"serialnumber":"","name":"緣羊軒民宿","address":"臺東縣台東市南一街96號","phone":"089326400","latitude":"22.77859019","longitude":"121.12321927","note":"銅級環保旅宿","county":"臺東縣","town":"台東市","village":"-"}},{"type":"Feature","geometry":{"type":"Point","coordinates":[120.2208836,22.9744738]},"properties":{"serialnumber":"","name":"台糖長榮酒店(台南)","address":"臺南市東區中華東路三段336巷1號","phone":"(06)3378888","latitude":"22.9744738","longitude":"120.2208836","note":"銅級環保旅宿","county":"臺南市","town":"東區","village":"-"}},{"type":"Feature","geometry":{"type":"Point","coordinates":[118.30804293,24.4783813]},"properties":{"serialnumber":"","name":"日玥居","address":"金門縣金寧鄉南山19號","phone":"(0987)397327","latitude":"24.4783813","longitude":"118.30804293","note":"銅級環保旅宿","county":"金門縣","town":"金寧鄉","village":"-"}},{"type":"Feature","geometry":{"type":"Point","coordinates":[121.21006787,25.0089247]},"properties":{"serialnumber":"","name":"藍水輕旅","address":"桃園市大園區高鐵南路一段126號","phone":"(03)2871855","latitude":"25.0089247","longitude":"121.21006787","note":"銅級環保旅宿","county":"桃園市","town":"大園區","village":"-"}},{"type":"Feature","geometry":{"type":"Point","coordinates":[121.34483601,25.00014198]},"properties":{"serialnumber":"","name":"智醫康寓","address":"桃園市桃園區民生路107號1-3樓及7-20樓","phone":"(03)3362575","latitude":"25.00014198","longitude":"121.34483601","note":"銅級環保旅宿","county":"桃園市","town":"龜山區","village":"-"}},{"type":"Feature","geometry":{"type":"Point","coordinates":[120.9663674,24.80982778]},"properties":{"serialnumber":"","name":"新竹福華大飯店","address":"新竹市中正路178號","phone":"(03)5282323#5303","latitude":"24.80982778","longitude":"120.9663674","note":"銅級環保旅宿","county":"新竹市","town":"北區","village":"-"}},{"type":"Feature","geometry":{"type":"Point","coordinates":[121.00955891,24.8360735]},"properties":{"serialnumber":"","name":"享豪大飯店","address":"新竹縣竹北市信義街7號","phone":"(03)6565501","latitude":"24.8360735","longitude":"121.00955891","note":"銅級環保旅宿","county":"新竹縣","town":"竹北市","village":"-"}},{"type":"Feature","geometry":{"type":"Point","coordinates":[121.01077414,24.20417876]},"properties":{"serialnumber":"","name":"惠來谷關溫泉會館","address":"臺中市和平區東關路一段溫泉巷十號","phone":"(04)25951998#621","latitude":"24.20417876","longitude":"121.01077414","note":"銅級環保旅宿","county":"臺中市","town":"和平區","village":"-"}},{"type":"Feature","geometry":{"type":"Point","coordinates":[120.3941046,23.26423239]},"properties":{"serialnumber":"","name":"柳營尖山埤渡假村","address":"臺南市柳營區旭山里60號","phone":"066233888","latitude":"23.26423239","longitude":"120.3941046","note":"銅級環保旅宿","county":"臺南市","town":"柳營區","village":"-"}},{"type":"Feature","geometry":{"type":"Point","coordinates":[121.5883709,23.8687925]},"properties":{"serialnumber":"","name":"遠雄悅來大飯店","address":"花蓮縣壽豐鄉鹽寮村山嶺18號","phone":"(03)8123900#8266","latitude":"23.8687925","longitude":"121.5883709","note":"銅級環保旅宿","county":"花蓮縣","town":"壽豐鄉","village":"-"}},{"type":"Feature","geometry":{"type":"Point","coordinates":[121.0203846,24.7815925]},"properties":{"serialnumber":"","name":"新竹老爺大酒店","address":"新竹市東區光復路一段227號","phone":"(03)5631285#204","latitude":"24.7815925","longitude":"121.0203846","note":"銅級環保旅宿","county":"新竹市","town":"東區","village":"-"}},{"type":"Feature","geometry":{"type":"Point","coordinates":[119.5737199,23.568465]},"properties":{"serialnumber":"","name":"雅霖大飯店","address":"澎湖縣馬公市同和路100號","phone":"(06)9261366","latitude":"23.568465","longitude":"119.5737199","note":"銅級環保旅宿","county":"澎湖縣","town":"馬公市","village":"-"}},{"type":"Feature","geometry":{"type":"Point","coordinates":[120.205715,22.996368]},"properties":{"serialnumber":"","name":"榮興金鬱金香酒店","address":"臺南市中西區民族路二段128號","phone":"(06)2200800#6006","latitude":"22.996368","longitude":"120.205715","note":"銅級環保旅宿","county":"臺南市","town":"中西區","village":"-"}},{"type":"Feature","geometry":{"type":"Point","coordinates":[120.2144206,22.9963918]},"properties":{"serialnumber":"","name":"台南遠東香格里拉","address":"臺南市東區大學路西段89號","phone":"(06)7028888#6903","latitude":"22.9963918","longitude":"120.2144206","note":"銅級環保旅宿","county":"臺南市","town":"東區","village":"-"}}]}